     3.04           N: GNSS NAV DATA    G: GPS              RINEX VERSION / TYPE
RTKCONV demo5 b34i                      20250516 060601 UTC PGM / RUN BY / DATE 
format: u-blox UBX                                          COMMENT             
log: D:\20242\NGUYENDS\GNSS_DOA_Spoofing\hai\ngoc\2025-04-20COMMENT             
                                                            END OF HEADER       
G23 2025 04 20 16 00 00  .462954398245D-03  .682121026330D-11  .000000000000D+00
      .129000000000D+03 -.424375000000D+02  .401409577463D-08 -.512127993489D+00
     -.238232314587D-05  .511319958605D-02  .421330332756D-05  .515364339828D+04
      .576000000000D+05  .169500708580D-06 -.284285104793D+01  .894069671631D-07
      .984089495232D+00  .312750000000D+03 -.284443691257D+01 -.803962059675D-08
     -.129291099779D-09  .100000000000D+01  .236300000000D+04  .000000000000D+00
      .200000000000D+01  .000000000000D+00 -.838190317154D-08  .385000000000D+03
      .544560000000D+05  .400000000000D+01
G18 2025 04 20 16 00 00 -.634820200503D-03  .420641299570D-11  .000000000000D+00
      .118000000000D+03  .520000000000D+02  .424946272147D-08  .591661113357D+00
      .268034636974D-05  .496873038355D-02  .486336648464D-05  .515369998169D+04
      .576000000000D+05 -.745058059692D-08  .243765105036D+01 -.931322574615D-08
      .973818382507D+00  .287375000000D+03 -.295579615319D+01 -.813748181592D-08
     -.125719522437D-09  .100000000000D+01  .236300000000D+04  .000000000000D+00
      .200000000000D+01  .000000000000D+00 -.838190317154D-08  .118000000000D+03
      .544560000000D+05  .400000000000D+01
G10 2025 04 20 16 00 00 -.396869610995D-03 -.129602995003D-10  .000000000000D+00
      .174000000000D+03 -.411250000000D+02  .376658546483D-08 -.170490446873D+01
     -.219233334064D-05  .101053757826D-01  .436604022980D-05  .515365157700D+04
      .576000000000D+05  .199303030968D-06 -.281229420757D+01 -.160187482834D-06
      .988990785745D+00  .310656250000D+03 -.231014721406D+01 -.770817821942D-08
     -.153577825704D-10  .100000000000D+01  .236300000000D+04  .000000000000D+00
      .200000000000D+01  .000000000000D+00  .279396772385D-08  .174000000000D+03
      .544560000000D+05  .400000000000D+01
G24 2025 04 20 16 00 00 -.418397597969D-03  .693489710102D-11  .000000000000D+00
      .240000000000D+02 -.186250000000D+02  .524236122253D-08  .737537486197D+00
     -.102445483208D-05  .165988689987D-01  .845268368721D-05  .515367822647D+04
      .576000000000D+05 -.167638063431D-06 -.826464678920D+00  .912696123123D-07
      .934253297846D+00  .205187500000D+03  .105669731306D+01 -.851321175230D-08
      .179650340301D-09  .100000000000D+01  .236300000000D+04  .000000000000D+00
      .200000000000D+01  .000000000000D+00  .232830643654D-08  .240000000000D+02
      .544560000000D+05  .400000000000D+01
G32 2025 04 20 16 00 00 -.472607556731D-03  .966338120634D-11  .000000000000D+00
      .850000000000D+02 -.789062500000D+02  .414660129402D-08 -.301378405634D+01
     -.402703881264D-05  .857441651169D-02  .764057040215D-05  .515359863853D+04
      .576000000000D+05  .353902578354D-07 -.178094580649D+01 -.577419996262D-07
      .964301484513D+00  .233343750000D+03 -.206422218392D+01 -.768639159763D-08
      .200722646618D-09  .100000000000D+01  .236300000000D+04  .000000000000D+00
      .200000000000D+01  .000000000000D+00  .931322574615D-09  .850000000000D+02
      .544560000000D+05  .400000000000D+01
G25 2025 04 20 16 00 00  .489895697683D-03 -.102318153949D-11  .000000000000D+00
      .560000000000D+02  .250625000000D+02  .509949812885D-08 -.104354330521D+01
      .159628689289D-05  .123201684328D-01  .727176666260D-05  .515363657761D+04
      .576000000000D+05  .931322574615D-07  .302287868303D+00  .268220901489D-06
      .948981503563D+00  .236468750000D+03  .112435270992D+01 -.823962892790D-08
     -.789318592573D-10  .100000000000D+01  .236300000000D+04  .000000000000D+00
      .200000000000D+01  .000000000000D+00  .558793544769D-08  .560000000000D+02
      .544560000000D+05  .400000000000D+01
G28 2025 04 20 16 00 00 -.599964987487D-03 -.602540239925D-11  .000000000000D+00
      .173000000000D+03 -.147187500000D+02  .443875632059D-08 -.378087891873D+00
     -.590458512306D-06  .251818331890D-03  .843964517117D-05  .515359465981D+04
      .576000000000D+05  .372529029846D-08 -.752965009181D+00 -.540167093277D-07
      .961511581240D+00  .215343750000D+03  .464497149496D+00 -.788389982464D-08
      .316798910232D-09  .100000000000D+01  .236300000000D+04  .000000000000D+00
      .200000000000D+01  .000000000000D+00 -.931322574615D-08  .173000000000D+03
      .544560000000D+05  .400000000000D+01
G12 2025 04 20 16 00 00 -.580900814384D-03 -.170530256582D-11  .000000000000D+00
      .860000000000D+02  .275000000000D+02  .484163024476D-08 -.940465402456D+00
      .156089663506D-05  .891082047019D-02  .786967575550D-05  .515369865417D+04
      .576000000000D+05 -.104308128357D-06  .392537960290D+00  .104308128357D-06
      .960795295586D+00  .235312500000D+03  .149960864694D+01 -.811998108695D-08
     -.100718481043D-09  .100000000000D+01  .236300000000D+04  .000000000000D+00
      .280000000000D+01  .000000000000D+00 -.125728547573D-07  .860000000000D+02
      .544560000000D+05  .400000000000D+01
G15 2025 04 20 15 59 44  .287493690848D-03  .420641299570D-11  .000000000000D+00
      .500000000000D+01 -.975000000000D+02  .483555856328D-08  .153478567810D+01
     -.527873635292D-05  .161331769777D-01  .704452395439D-05  .515357701874D+04
      .575840000000D+05 -.111758708954D-06 -.193310226867D+01 -.381842255592D-06
      .938525257093D+00  .236937500000D+03  .141042468576D+01 -.832248952224D-08
      .129291099779D-09  .100000000000D+01  .236300000000D+04  .000000000000D+00
      .200000000000D+01  .000000000000D+00 -.102445483208D-07  .500000000000D+01
      .544560000000D+05  .400000000000D+01
